CCSDS_OMM_VERS = 2.0
CREATION_DATE  = 
ORIGINATOR     = 

OBJECT_NAME    = STARLINK-36529
OBJECT_ID      = 2026-008N
CENTER_NAME    = EARTH
REF_FRAME      = TEME
TIME_SYSTEM    = UTC
MEAN_ELEMENT_THEORY = SGP/SGP4

EPOCH          = 2026-02-12T12:00:01.999296
MEAN_MOTION    = 15.43156078
ECCENTRICITY   = .0001605
INCLINATION    = 43.0004
RA_OF_ASC_NODE = 347.9090
ARG_OF_PERICENTER = 268.2344
MEAN_ANOMALY   = 136.5893

EPHEMERIS_TYPE = 0
CLASSIFICATION_TYPE = U
NORAD_CAT_ID   = 67457
ELEMENT_SET_NO = 999
REV_AT_EPOCH   = 575
BSTAR          = -.51774E-1
MEAN_MOTION_DOT = -.2082302E-1
MEAN_MOTION_DDOT = 0

CCSDS_OMM_VERS = 2.0
CREATION_DATE  = 
ORIGINATOR     = 

OBJECT_NAME    = STARLINK-36528
OBJECT_ID      = 2026-008P
CENTER_NAME    = EARTH
REF_FRAME      = TEME
TIME_SYSTEM    = UTC
MEAN_ELEMENT_THEORY = SGP/SGP4

EPOCH          = 2026-02-12T12:00:01.999296
MEAN_MOTION    = 15.47337938
ECCENTRICITY   = .0001059
INCLINATION    = 43.0004
RA_OF_ASC_NODE = 347.5401
ARG_OF_PERICENTER = 263.6170
MEAN_ANOMALY   = 291.1273

EPHEMERIS_TYPE = 0
CLASSIFICATION_TYPE = U
NORAD_CAT_ID   = 67458
ELEMENT_SET_NO = 999
REV_AT_EPOCH   = 576
BSTAR          = -.45099E-1
MEAN_MOTION_DOT = -.2094329E-1
MEAN_MOTION_DDOT = 0

CCSDS_OMM_VERS = 2.0
CREATION_DATE  = 
ORIGINATOR     = 

OBJECT_NAME    = STARLINK-36546
OBJECT_ID      = 2026-008Q
CENTER_NAME    = EARTH
REF_FRAME      = TEME
TIME_SYSTEM    = UTC
MEAN_ELEMENT_THEORY = SGP/SGP4

EPOCH          = 2026-02-12T12:00:01.999296
MEAN_MOTION    = 15.38551222
ECCENTRICITY   = .0001499
INCLINATION    = 43.0010
RA_OF_ASC_NODE = 347.9796
ARG_OF_PERICENTER = 261.2440
MEAN_ANOMALY   = 114.4832

EPHEMERIS_TYPE = 0
CLASSIFICATION_TYPE = U
NORAD_CAT_ID   = 67459
ELEMENT_SET_NO = 999
REV_AT_EPOCH   = 575
BSTAR          = -.6036E-1
MEAN_MOTION_DOT = -.2116315E-1
MEAN_MOTION_DDOT = 0

CCSDS_OMM_VERS = 2.0
CREATION_DATE  = 
ORIGINATOR     = 

OBJECT_NAME    = STARLINK-36523
OBJECT_ID      = 2026-008R
CENTER_NAME    = EARTH
REF_FRAME      = TEME
TIME_SYSTEM    = UTC
MEAN_ELEMENT_THEORY = SGP/SGP4

EPOCH          = 2026-02-12T12:00:01.999296
MEAN_MOTION    = 15.39702297
ECCENTRICITY   = .0001498
INCLINATION    = 43.0002
RA_OF_ASC_NODE = 347.9188
ARG_OF_PERICENTER = 266.3831
MEAN_ANOMALY   = 134.1492

EPHEMERIS_TYPE = 0
CLASSIFICATION_TYPE = U
NORAD_CAT_ID   = 67460
ELEMENT_SET_NO = 999
REV_AT_EPOCH   = 576
BSTAR          = -.58218E-1
MEAN_MOTION_DOT = -.2083952E-1
MEAN_MOTION_DDOT = 0

CCSDS_OMM_VERS = 2.0
CREATION_DATE  = 
ORIGINATOR     = 

OBJECT_NAME    = STARLINK-36522
OBJECT_ID      = 2026-008S
CENTER_NAME    = EARTH
REF_FRAME      = TEME
TIME_SYSTEM    = UTC
MEAN_ELEMENT_THEORY = SGP/SGP4

EPOCH          = 2026-02-11T23:47:06.650016
MEAN_MOTION    = 15.50570419
ECCENTRICITY   = .00017689
INCLINATION    = 42.9985
RA_OF_ASC_NODE = 351.0827
ARG_OF_PERICENTER = 285.0363
MEAN_ANOMALY   = 75.0301

EPHEMERIS_TYPE = 0
CLASSIFICATION_TYPE = U
NORAD_CAT_ID   = 67461
ELEMENT_SET_NO = 999
REV_AT_EPOCH   = 563
BSTAR          = .15226432E-2
MEAN_MOTION_DOT = .89991E-3
MEAN_MOTION_DDOT = 0

CCSDS_OMM_VERS = 2.0
CREATION_DATE  = 
ORIGINATOR     = 

OBJECT_NAME    = STARLINK-36504
OBJECT_ID      = 2026-008T
CENTER_NAME    = EARTH
REF_FRAME      = TEME
TIME_SYSTEM    = UTC
MEAN_ELEMENT_THEORY = SGP/SGP4

EPOCH          = 2026-02-12T12:00:01.999296
MEAN_MOTION    = 15.40971406
ECCENTRICITY   = .0001298
INCLINATION    = 42.9999
RA_OF_ASC_NODE = 347.7018
ARG_OF_PERICENTER = 272.9603
MEAN_ANOMALY   = 215.3403

EPHEMERIS_TYPE = 0
CLASSIFICATION_TYPE = U
NORAD_CAT_ID   = 67462
ELEMENT_SET_NO = 999
REV_AT_EPOCH   = 576
BSTAR          = -.55012E-1
MEAN_MOTION_DOT = -.2057789E-1
MEAN_MOTION_DDOT = 0

CCSDS_OMM_VERS = 2.0
CREATION_DATE  = 
ORIGINATOR     = 

OBJECT_NAME    = STARLINK-36505
OBJECT_ID      = 2026-008U
CENTER_NAME    = EARTH
REF_FRAME      = TEME
TIME_SYSTEM    = UTC
MEAN_ELEMENT_THEORY = SGP/SGP4

EPOCH          = 2026-02-12T12:00:01.999296
MEAN_MOTION    = 15.46496710
ECCENTRICITY   = .0001463
INCLINATION    = 43.0003
RA_OF_ASC_NODE = 347.7261
ARG_OF_PERICENTER = 272.9184
MEAN_ANOMALY   = 206.0519

EPHEMERIS_TYPE = 0
CLASSIFICATION_TYPE = U
NORAD_CAT_ID   = 67463
ELEMENT_SET_NO = 999
REV_AT_EPOCH   = 575
BSTAR          = -.46092E-1
MEAN_MOTION_DOT = -.208037E-1
MEAN_MOTION_DDOT = 0

CCSDS_OMM_VERS = 2.0
CREATION_DATE  = 
ORIGINATOR     = 

OBJECT_NAME    = STARLINK-36421
OBJECT_ID      = 2026-008V
CENTER_NAME    = EARTH
REF_FRAME      = TEME
TIME_SYSTEM    = UTC
MEAN_ELEMENT_THEORY = SGP/SGP4

EPOCH          = 2026-02-12T04:24:31.442400
MEAN_MOTION    = 15.50578884
ECCENTRICITY   = .00012455
INCLINATION    = 42.9994
RA_OF_ASC_NODE = 349.9495
ARG_OF_PERICENTER = 270.2791
MEAN_ANOMALY   = 89.7926

EPHEMERIS_TYPE = 0
CLASSIFICATION_TYPE = U
NORAD_CAT_ID   = 67464
ELEMENT_SET_NO = 999
REV_AT_EPOCH   = 566
BSTAR          = .15803347E-2
MEAN_MOTION_DOT = .93482E-3
MEAN_MOTION_DDOT = 0

CCSDS_OMM_VERS = 2.0
CREATION_DATE  = 
ORIGINATOR     = 

OBJECT_NAME    = STARLINK-36437
OBJECT_ID      = 2026-008W
CENTER_NAME    = EARTH
REF_FRAME      = TEME
TIME_SYSTEM    = UTC
MEAN_ELEMENT_THEORY = SGP/SGP4

EPOCH          = 2026-02-12T00:00:02.000160
MEAN_MOTION    = 15.51014619
ECCENTRICITY   = .00009908
INCLINATION    = 43.0001
RA_OF_ASC_NODE = 350.6065
ARG_OF_PERICENTER = 272.3499
MEAN_ANOMALY   = 310.3367

EPHEMERIS_TYPE = 0
CLASSIFICATION_TYPE = U
NORAD_CAT_ID   = 67465
ELEMENT_SET_NO = 999
REV_AT_EPOCH   = 566
BSTAR          = -.33968146E-1
MEAN_MOTION_DOT = -.179592E-1
MEAN_MOTION_DDOT = 0

CCSDS_OMM_VERS = 2.0
CREATION_DATE  = 
ORIGINATOR     = 

OBJECT_NAME    = STARLINK-36520
OBJECT_ID      = 2026-008X
CENTER_NAME    = EARTH
REF_FRAME      = TEME
TIME_SYSTEM    = UTC
MEAN_ELEMENT_THEORY = SGP/SGP4

EPOCH          = 2026-02-12T12:00:01.999296
MEAN_MOTION    = 15.40107137
ECCENTRICITY   = .00017
INCLINATION    = 43.0005
RA_OF_ASC_NODE = 347.9797
ARG_OF_PERICENTER = 255.1781
MEAN_ANOMALY   = 120.1568

EPHEMERIS_TYPE = 0
CLASSIFICATION_TYPE = U
NORAD_CAT_ID   = 67466
ELEMENT_SET_NO = 999
REV_AT_EPOCH   = 575
BSTAR          = -.57479E-1
MEAN_MOTION_DOT = -.2085402E-1
MEAN_MOTION_DDOT = 0

CCSDS_OMM_VERS = 2.0
CREATION_DATE  = 
ORIGINATOR     = 

OBJECT_NAME    = STARLINK-36425
OBJECT_ID      = 2026-008Y
CENTER_NAME    = EARTH
REF_FRAME      = TEME
TIME_SYSTEM    = UTC
MEAN_ELEMENT_THEORY = SGP/SGP4

EPOCH          = 2026-02-11T05:30:08.891712
MEAN_MOTION    = 15.50668171
ECCENTRICITY   = .00028801
INCLINATION    = 43.0009
RA_OF_ASC_NODE = 355.6901
ARG_OF_PERICENTER = 249.0503
MEAN_ANOMALY   = 111.0049

EPHEMERIS_TYPE = 0
CLASSIFICATION_TYPE = U
NORAD_CAT_ID   = 67467
ELEMENT_SET_NO = 999
REV_AT_EPOCH   = 551
BSTAR          = .19027554E-2
MEAN_MOTION_DOT = .113281E-2
MEAN_MOTION_DDOT = 0

CCSDS_OMM_VERS = 2.0
CREATION_DATE  = 
ORIGINATOR     = 

OBJECT_NAME    = STARLINK-36414
OBJECT_ID      = 2026-008Z
CENTER_NAME    = EARTH
REF_FRAME      = TEME
TIME_SYSTEM    = UTC
MEAN_ELEMENT_THEORY = SGP/SGP4

EPOCH          = 2026-02-11T06:02:53.856672
MEAN_MOTION    = 15.50624812
ECCENTRICITY   = .00016197
INCLINATION    = 43.0000
RA_OF_ASC_NODE = 354.9811
ARG_OF_PERICENTER = 288.2757
MEAN_ANOMALY   = 71.7927

EPHEMERIS_TYPE = 0
CLASSIFICATION_TYPE = U
NORAD_CAT_ID   = 67468
ELEMENT_SET_NO = 999
REV_AT_EPOCH   = 552
BSTAR          = .24892734E-2
MEAN_MOTION_DOT = .148743E-2
MEAN_MOTION_DDOT = 0

