STARLINK-36529          
1 67457U 26008N   26043.50002314 -.02082302  00000+0 -51774-1 0  9998
2 67457  43.0004 347.9090 0001605 268.2344 136.5893 15.43156078  5757
STARLINK-36528          
1 67458U 26008P   26043.50002314 -.02094329  00000+0 -45099-1 0  9994
2 67458  43.0004 347.5401 0001059 263.6170 291.1273 15.47337938  5760
STARLINK-36546          
1 67459U 26008Q   26043.50002314 -.02116315  00000+0 -60360-1 0  9993
2 67459  43.0010 347.9796 0001499 261.2440 114.4832 15.38551222  5752
STARLINK-36523          
1 67460U 26008R   26043.50002314 -.02083952  00000+0 -58218-1 0  9994
2 67460  43.0002 347.9188 0001498 266.3831 134.1492 15.39702297  5762
STARLINK-36522          
1 67461U 26008S   26042.99104919  .00089991  00000+0  15226-2 0  9999
2 67461  42.9985 351.0827 0001768 285.0363  75.0301 15.50570419  5635
STARLINK-36504          
1 67462U 26008T   26043.50002314 -.02057789  00000+0 -55012-1 0  9994
2 67462  42.9999 347.7018 0001298 272.9603 215.3403 15.40971406  5761
STARLINK-36505          
1 67463U 26008U   26043.50002314 -.02080370  00000+0 -46092-1 0  9995
2 67463  43.0003 347.7261 0001463 272.9184 206.0519 15.46496710  5758
STARLINK-36421          
1 67464U 26008V   26043.18369725  .00093482  00000+0  15803-2 0  9993
2 67464  42.9994 349.9495 0001245 270.2791  89.7926 15.50578884  5668
STARLINK-36437          
1 67465U 26008W   26043.00002315 -.01795920  00000+0 -33968-1 0  9994
2 67465  43.0001 350.6065 0000990 272.3499 310.3367 15.51014619  5660
STARLINK-36520          
1 67466U 26008X   26043.50002314 -.02085402  00000+0 -57479-1 0  9990
2 67466  43.0005 347.9797 0001700 255.1781 120.1568 15.40107137  5755
STARLINK-36425          
1 67467U 26008Y   26042.22926958  .00113281  00000+0  19028-2 0  9990
2 67467  43.0009 355.6901 0002880 249.0503 111.0049 15.50668171  5515
STARLINK-36414          
1 67468U 26008Z   26042.25201223  .00148743  00000+0  24893-2 0  9992
2 67468  43.0000 354.9811 0001619 288.2757  71.7927 15.50624812  5526
